STARLINK-11309 [DTC]    
1 61202U 24171C   25241.19153710 -.00000667  00000+0 -66215-6 0  9993
2 61202  53.1605  45.2890 0000358  68.8264 291.2793 15.69702438 54165
STARLINK-11292 [DTC]    
1 61203U 24171D   25241.18662964 -.00000369  00000+0  18029-5 0  9996
2 61203  53.1600  45.2560 0000423  88.3805 271.7261 15.69704365 54160
STARLINK-11302 [DTC]    
1 61204U 24171E   25241.18172326 -.00000017  00000+0  47097-5 0  9992
2 61204  53.1593  45.2231 0000482  88.1724 271.9350 15.69704663 54162
STARLINK-11277 [DTC]    
1 61205U 24171F   25241.17191204 -.00000121  00000+0  38548-5 0  9995
2 61205  53.1593  45.1579 0000699  81.3369 278.7728 15.69705850 54160
STARLINK-11279 [DTC]    
1 61206U 24171G   25241.16700591  .00000037  00000+0  51550-5 0  9993
2 61206  53.1604  45.1243 0000541  74.3983 285.7095 15.69706121 54169
STARLINK-11091 [DTC]    
1 61207U 24171H   25241.17682088 -.00000847  00000+0 -21325-5 0  9993
2 61207  53.1603  45.1906 0001224  92.4818 267.6341 15.69703881 54165
STARLINK-11291 [DTC]    
1 61208U 24171J   25240.71641664 -.00000926  00000+0 -27914-5 0  9996
2 61208  53.1607  47.2875 0000894  87.0877 273.0243 15.69708473 54091
STARLINK-11304 [DTC]    
1 61209U 24171K   25241.15719414 -.00000793  00000+0 -16874-5 0  9990
2 61209  53.1595  45.0582 0000864  87.3341 272.7776 15.69710865 55079
STARLINK-11307 [DTC]    
1 61210U 24171L   25240.77037454 -.00001483  00000+0 -73889-5 0  9992
2 61210  53.1591  47.6437 0000636  79.3275 280.7815 15.69713032 54091
STARLINK-11298 [DTC]    
1 61211U 24171M   25240.76546912 -.00001817  00000+0 -10147-4 0  9994
2 61211  53.1589  47.6114 0000768  65.1003 295.0095 15.69713742 54096
STARLINK-11310 [DTC]    
1 61212U 24171N   25240.63322396 -.00000243  00000+0  28518-5 0  9992
2 61212  53.1602  48.2065 0000771  84.4908 275.6198 15.69709386 54072
STARLINK-32386          
1 61213U 24171P   25241.20879551  .00000323  00000+0  23046-4 0  9995
2 61213  53.1608 136.1552 0001145  82.2360 277.8771 15.30194413 52909
STARLINK-32392          
1 61214U 24171Q   25241.09610833  .00001841  00000+0  74301-4 0  9995
2 61214  53.1598 136.8728 0001180  87.9535 272.1601 15.30187177 52881
STARLINK-32436          
1 61215U 24171R   25241.01390782  .00000518  00000+0  29603-4 0  9991
2 61215  53.1605 137.0686 0001181  93.5415 266.5721 15.30194030 52873
STARLINK-32425          
1 61216U 24171S   25241.11932592  .00000216  00000+0  19437-4 0  9993
2 61216  53.1593 137.0170 0001216  71.5366 288.5767 15.30185671 52884
STARLINK-32342          
1 61217U 24171T   25240.97814163  .00001827  00000+0  73847-4 0  9994
2 61217  53.1622 137.5613 0001369  63.3378 296.7763 15.30182943 53771
