[{"OBJECT_NAME":"STARLINK-11309 [DTC]","OBJECT_ID":"2024-171C","EPOCH":"2025-08-29T04:35:48.805440","MEAN_MOTION":15.69702438,"ECCENTRICITY":3.584e-5,"INCLINATION":53.1605,"RA_OF_ASC_NODE":45.289,"ARG_OF_PERICENTER":68.8264,"MEAN_ANOMALY":291.2793,"EPHEMERIS_TYPE":0,"CLASSIFICATION_TYPE":"U","NORAD_CAT_ID":61202,"ELEMENT_SET_NO":999,"REV_AT_EPOCH":5416,"BSTAR":-6.62152e-7,"MEAN_MOTION_DOT":-6.67e-6,"MEAN_MOTION_DDOT":0},{"OBJECT_NAME":"STARLINK-11292 [DTC]","OBJECT_ID":"2024-171D","EPOCH":"2025-08-29T04:28:44.800896","MEAN_MOTION":15.69704365,"ECCENTRICITY":4.231e-5,"INCLINATION":53.16,"RA_OF_ASC_NODE":45.256,"ARG_OF_PERICENTER":88.3805,"MEAN_ANOMALY":271.7261,"EPHEMERIS_TYPE":0,"CLASSIFICATION_TYPE":"U","NORAD_CAT_ID":61203,"ELEMENT_SET_NO":999,"REV_AT_EPOCH":5416,"BSTAR":1.802948e-6,"MEAN_MOTION_DOT":-3.69e-6,"MEAN_MOTION_DDOT":0},{"OBJECT_NAME":"STARLINK-11302 [DTC]","OBJECT_ID":"2024-171E","EPOCH":"2025-08-29T04:21:40.889664","MEAN_MOTION":15.69704663,"ECCENTRICITY":4.822e-5,"INCLINATION":53.1593,"RA_OF_ASC_NODE":45.2231,"ARG_OF_PERICENTER":88.1724,"MEAN_ANOMALY":271.935,"EPHEMERIS_TYPE":0,"CLASSIFICATION_TYPE":"U","NORAD_CAT_ID":61204,"ELEMENT_SET_NO":999,"REV_AT_EPOCH":5416,"BSTAR":4.709673e-6,"MEAN_MOTION_DOT":-1.7e-7,"MEAN_MOTION_DDOT":0},{"OBJECT_NAME":"STARLINK-11277 [DTC]","OBJECT_ID":"2024-171F","EPOCH":"2025-08-29T04:07:33.200256","MEAN_MOTION":15.6970585,"ECCENTRICITY":6.991e-5,"INCLINATION":53.1593,"RA_OF_ASC_NODE":45.1579,"ARG_OF_PERICENTER":81.3369,"MEAN_ANOMALY":278.7728,"EPHEMERIS_TYPE":0,"CLASSIFICATION_TYPE":"U","NORAD_CAT_ID":61205,"ELEMENT_SET_NO":999,"REV_AT_EPOCH":5416,"BSTAR":3.854843e-6,"MEAN_MOTION_DOT":-1.21e-6,"MEAN_MOTION_DDOT":0},{"OBJECT_NAME":"STARLINK-11279 [DTC]","OBJECT_ID":"2024-171G","EPOCH":"2025-08-29T04:00:29.310624","MEAN_MOTION":15.69706121,"ECCENTRICITY":5.419e-5,"INCLINATION":53.1604,"RA_OF_ASC_NODE":45.1243,"ARG_OF_PERICENTER":74.3983,"MEAN_ANOMALY":285.7095,"EPHEMERIS_TYPE":0,"CLASSIFICATION_TYPE":"U","NORAD_CAT_ID":61206,"ELEMENT_SET_NO":999,"REV_AT_EPOCH":5416,"BSTAR":5.15498e-6,"MEAN_MOTION_DOT":3.7e-7,"MEAN_MOTION_DDOT":0},{"OBJECT_NAME":"STARLINK-11091 [DTC]","OBJECT_ID":"2024-171H","EPOCH":"2025-08-29T04:14:37.324032","MEAN_MOTION":15.69703881,"ECCENTRICITY":0.00012249,"INCLINATION":53.1603,"RA_OF_ASC_NODE":45.1906,"ARG_OF_PERICENTER":92.4818,"MEAN_ANOMALY":267.6341,"EPHEMERIS_TYPE":0,"CLASSIFICATION_TYPE":"U","NORAD_CAT_ID":61207,"ELEMENT_SET_NO":999,"REV_AT_EPOCH":5416,"BSTAR":-2.132498e-6,"MEAN_MOTION_DOT":-8.47e-6,"MEAN_MOTION_DDOT":0},{"OBJECT_NAME":"STARLINK-11291 [DTC]","OBJECT_ID":"2024-171J","EPOCH":"2025-08-28T17:11:38.397696","MEAN_MOTION":15.69708473,"ECCENTRICITY":8.949e-5,"INCLINATION":53.1607,"RA_OF_ASC_NODE":47.2875,"ARG_OF_PERICENTER":87.0877,"MEAN_ANOMALY":273.0243,"EPHEMERIS_TYPE":0,"CLASSIFICATION_TYPE":"U","NORAD_CAT_ID":61208,"ELEMENT_SET_NO":999,"REV_AT_EPOCH":5409,"BSTAR":-2.791446e-6,"MEAN_MOTION_DOT":-9.26e-6,"MEAN_MOTION_DDOT":0},{"OBJECT_NAME":"STARLINK-11304 [DTC]","OBJECT_ID":"2024-171K","EPOCH":"2025-08-29T03:46:21.573696","MEAN_MOTION":15.69710865,"ECCENTRICITY":8.641e-5,"INCLINATION":53.1595,"RA_OF_ASC_NODE":45.0582,"ARG_OF_PERICENTER":87.3341,"MEAN_ANOMALY":272.7776,"EPHEMERIS_TYPE":0,"CLASSIFICATION_TYPE":"U","NORAD_CAT_ID":61209,"ELEMENT_SET_NO":999,"REV_AT_EPOCH":5507,"BSTAR":-1.68739e-6,"MEAN_MOTION_DOT":-7.93e-6,"MEAN_MOTION_DDOT":0},{"OBJECT_NAME":"STARLINK-11307 [DTC]","OBJECT_ID":"2024-171L","EPOCH":"2025-08-28T18:29:20.360256","MEAN_MOTION":15.69713032,"ECCENTRICITY":6.368e-5,"INCLINATION":53.1591,"RA_OF_ASC_NODE":47.6437,"ARG_OF_PERICENTER":79.3275,"MEAN_ANOMALY":280.7815,"EPHEMERIS_TYPE":0,"CLASSIFICATION_TYPE":"U","NORAD_CAT_ID":61210,"ELEMENT_SET_NO":999,"REV_AT_EPOCH":5409,"BSTAR":-7.388946e-6,"MEAN_MOTION_DOT":-1.483e-5,"MEAN_MOTION_DDOT":0},{"OBJECT_NAME":"STARLINK-11298 [DTC]","OBJECT_ID":"2024-171M","EPOCH":"2025-08-28T18:22:16.531968","MEAN_MOTION":15.69713742,"ECCENTRICITY":7.688e-5,"INCLINATION":53.1589,"RA_OF_ASC_NODE":47.6114,"ARG_OF_PERICENTER":65.1003,"MEAN_ANOMALY":295.0095,"EPHEMERIS_TYPE":0,"CLASSIFICATION_TYPE":"U","NORAD_CAT_ID":61211,"ELEMENT_SET_NO":999,"REV_AT_EPOCH":5409,"BSTAR":-1.0146666e-5,"MEAN_MOTION_DOT":-1.817e-5,"MEAN_MOTION_DDOT":0},{"OBJECT_NAME":"STARLINK-11310 [DTC]","OBJECT_ID":"2024-171N","EPOCH":"2025-08-28T15:11:50.550144","MEAN_MOTION":15.69709386,"ECCENTRICITY":7.71e-5,"INCLINATION":53.1602,"RA_OF_ASC_NODE":48.2065,"ARG_OF_PERICENTER":84.4908,"MEAN_ANOMALY":275.6198,"EPHEMERIS_TYPE":0,"CLASSIFICATION_TYPE":"U","NORAD_CAT_ID":61212,"ELEMENT_SET_NO":999,"REV_AT_EPOCH":5407,"BSTAR":2.851766e-6,"MEAN_MOTION_DOT":-2.43e-6,"MEAN_MOTION_DDOT":0},{"OBJECT_NAME":"STARLINK-32386","OBJECT_ID":"2024-171P","EPOCH":"2025-08-29T05:00:39.932064","MEAN_MOTION":15.30194413,"ECCENTRICITY":0.00011455,"INCLINATION":53.1608,"RA_OF_ASC_NODE":136.1552,"ARG_OF_PERICENTER":82.236,"MEAN_ANOMALY":277.8771,"EPHEMERIS_TYPE":0,"CLASSIFICATION_TYPE":"U","NORAD_CAT_ID":61213,"ELEMENT_SET_NO":999,"REV_AT_EPOCH":5290,"BSTAR":2.3045832e-5,"MEAN_MOTION_DOT":3.23e-6,"MEAN_MOTION_DDOT":0},{"OBJECT_NAME":"STARLINK-32392","OBJECT_ID":"2024-171Q","EPOCH":"2025-08-29T02:18:23.759712","MEAN_MOTION":15.30187177,"ECCENTRICITY":0.00011809,"INCLINATION":53.1598,"RA_OF_ASC_NODE":136.8728,"ARG_OF_PERICENTER":87.9535,"MEAN_ANOMALY":272.1601,"EPHEMERIS_TYPE":0,"CLASSIFICATION_TYPE":"U","NORAD_CAT_ID":61214,"ELEMENT_SET_NO":999,"REV_AT_EPOCH":5288,"BSTAR":7.4301227e-5,"MEAN_MOTION_DOT":1.841e-5,"MEAN_MOTION_DDOT":0},{"OBJECT_NAME":"STARLINK-32436","OBJECT_ID":"2024-171R","EPOCH":"2025-08-29T00:20:01.635648","MEAN_MOTION":15.3019403,"ECCENTRICITY":0.00011814,"INCLINATION":53.1605,"RA_OF_ASC_NODE":137.0686,"ARG_OF_PERICENTER":93.5415,"MEAN_ANOMALY":266.5721,"EPHEMERIS_TYPE":0,"CLASSIFICATION_TYPE":"U","NORAD_CAT_ID":61215,"ELEMENT_SET_NO":999,"REV_AT_EPOCH":5287,"BSTAR":2.9603496e-5,"MEAN_MOTION_DOT":5.18e-6,"MEAN_MOTION_DDOT":0},{"OBJECT_NAME":"STARLINK-32425","OBJECT_ID":"2024-171S","EPOCH":"2025-08-29T02:51:49.759488","MEAN_MOTION":15.30185671,"ECCENTRICITY":0.00012162,"INCLINATION":53.1593,"RA_OF_ASC_NODE":137.017,"ARG_OF_PERICENTER":71.5366,"MEAN_ANOMALY":288.5767,"EPHEMERIS_TYPE":0,"CLASSIFICATION_TYPE":"U","NORAD_CAT_ID":61216,"ELEMENT_SET_NO":999,"REV_AT_EPOCH":5288,"BSTAR":1.9437175e-5,"MEAN_MOTION_DOT":2.16e-6,"MEAN_MOTION_DDOT":0},{"OBJECT_NAME":"STARLINK-32342","OBJECT_ID":"2024-171T","EPOCH":"2025-08-28T23:28:31.436832","MEAN_MOTION":15.30182943,"ECCENTRICITY":0.00013698,"INCLINATION":53.1622,"RA_OF_ASC_NODE":137.5613,"ARG_OF_PERICENTER":63.3378,"MEAN_ANOMALY":296.7763,"EPHEMERIS_TYPE":0,"CLASSIFICATION_TYPE":"U","NORAD_CAT_ID":61217,"ELEMENT_SET_NO":999,"REV_AT_EPOCH":5377,"BSTAR":7.3847412e-5,"MEAN_MOTION_DOT":1.827e-5,"MEAN_MOTION_DDOT":0}]
